RANGE-A                 
1 43773U 18099R   26068.70590171  .00005536  00000+0  32166-3 0  9992
2 43773  97.4107 114.1927 0009674 340.4473  19.6386 15.12458640397457
STARLINK-5209           
1 54061U 22136L   26068.84802331  .00001685  00000+0  12387-3 0  9994
2 54061  53.2181 308.0224 0001437  87.1231 272.9926 15.08857145187360
